GLOBALSTAR M067         
1 32263U 07048A   25049.16937973 -.00000092  00000+0  43731-4 0  9993
2 32263  51.9749  24.1859 0001210  86.3054 286.9662 12.40666037794714
GLOBALSTAR M070         
1 32264U 07048B   25049.53158774 -.00000061  00000+0  23822-3 0  9993
2 32264  51.9745 129.9759 0000698 137.8746 325.8194 12.62312171798687
GLOBALSTAR M066         
1 32265U 07048C   25049.60502506 -.00000075  00000+0  16402-3 0  9999
2 32265  51.9697   8.9922 0000461  52.7740 118.3447 12.42170823800649
GLOBALSTAR M068         
1 32266U 07048D   25049.20712378 -.00000050  00000+0  29643-3 0  9990
2 32266  51.9896 304.9491 0000275 186.9208 313.8504 12.62815517802526
GLOBALSTAR M079         
1 37188U 10054A   25049.54890756 -.00000072  00000+0  17704-3 0  9992
2 37188  52.0034 140.9413 0000792  93.5002 280.0358 12.62270948661473
GLOBALSTAR M074         
1 37189U 10054B   25049.43159152 -.00000026  00000+0  43305-3 0  9994
2 37189  52.0011 140.6400 0000886 119.4358 319.9799 12.62266515662060
GLOBALSTAR M076         
1 37190U 10054C   25049.52228574 -.00000075  00000+0  15804-3 0  9998
2 37190  52.0024 140.5209 0001057 104.7650 269.1591 12.62277760661794
GLOBALSTAR M077         
1 37191U 10054D   25049.28584690 -.00000089  00000+0  80069-4 0  9997
2 37191  52.0067  98.0661 0000542 120.3130 316.6494 12.62271046662136
